OBJECT_NAME,OBJECT_ID,EPOCH,MEAN_MOTION,ECCENTRICITY,INCLINATION,RA_OF_ASC_NODE,ARG_OF_PERICENTER,MEAN_ANOMALY,EPHEMERIS_TYPE,CLASSIFICATION_TYPE,NORAD_CAT_ID,ELEMENT_SET_NO,REV_AT_EPOCH,BSTAR,MEAN_MOTION_DOT,MEAN_MOTION_DDOT
LEMUR-2-FINNIAN,2025-276DX,2026-07-08T00:29:04.740864,15.00562767,.00079857,97.5341,259.3594,26.3338,333.8291,0,U,66782,999,2312,.17772481E-3,.2186E-4,0
LEMUR-2-STARLIGHT,2025-276DY,2026-07-08T17:29:34.133856,14.99303210,.00147539,97.5227,259.6310,66.1054,294.1714,0,U,66783,999,3342,.37014259E-3,.4473E-4,0
LEMUR-2-TARTIFLETTE,2025-276DZ,2026-07-08T17:27:10.848096,14.99291776,.00137838,97.5228,259.6372,73.9677,286.3064,0,U,66784,999,3342,.30443008E-3,.3667E-4,0
LEMUR-2-VUKASIN,2025-276EA,2026-07-08T18:28:02.251200,15.00508276,.00040519,97.5244,260.0251,73.4291,286.7378,0,U,66785,999,3338,.27693947E-3,.3433E-4,0
LEMUR-2-HOTSPUR-TOM,2025-276EB,2026-07-08T17:18:31.646304,14.99199376,.0013879,97.5218,259.6080,65.1391,295.1274,0,U,66786,999,3335,.32280727E-3,.3882E-4,0
LEMUR-2-MYRA,2025-276EC,2026-07-08T17:38:11.154048,15.00540732,.00185497,97.5215,259.9118,73.7991,286.5273,0,U,66787,999,3344,.33554187E-3,.4189E-4,0
LEMUR-2 FIKRETDENGIZ,2026-004A,2026-07-08T18:45:28.232928,14.88486564,.00104433,97.8024,188.0099,73.6588,286.5776,0,U,67363,999,2649,.24954548E-3,.2265E-4,0
TWILIGHT-1 OBJECT B,2026-004B,2026-07-08T22:48:13.243392,14.87779263,.00100613,97.8069,188.1805,63.6748,296.5501,0,U,67364,999,2652,.15152187E-3,.133E-4,0
LEMUR-2-MARIO-SOUSA,2026-004C,2026-07-08T10:13:49.346976,14.88692272,.00101493,97.7999,187.6551,75.7007,284.5336,0,U,67365,999,2645,.28573315E-3,.2615E-4,0
LEMUR-2-SONNENBLUME,2026-004E,2026-07-08T23:10:37.500384,14.88433763,.00096572,97.7994,188.1619,75.6747,284.5541,0,U,67367,999,2653,.1770761E-3,.1589E-4,0
LEMUR-2-WOBLER,2026-004F,2026-07-08T22:56:39.178464,14.88670933,.00098675,97.8049,188.2967,67.3819,292.8441,0,U,67368,999,2653,.26776253E-3,.2446E-4,0
LEMUR-2-GRAM-E-SUE,2026-004H,2026-07-08T22:44:41.723232,14.88571655,.00088216,97.7979,188.1606,78.1086,282.1119,0,U,67370,999,2653,.19485034E-3,.176E-4,0
LEMUR-2-KATIE,2026-004AA,2026-07-08T07:22:28.717248,14.90210933,.00040332,97.8044,188.0585,49.1270,311.0297,0,U,67387,999,2645,.241156E-3,.2282E-4,0
LEMUR-2-HCS-BAZUS,2026-004AB,2026-07-08T21:50:25.703808,14.90240247,.00034297,97.8033,188.6331,48.3444,311.8067,0,U,67388,999,2654,.13573416E-3,.1261E-4,0
